CSS (WENTIAN)           
1 53239U 22085A   22221.50456095  .00008683  00000+0  10184-3 0  9993
2 53239  41.4732 254.2158 0005588  15.5794 131.7657 15.61614163 73104
STARLINK-4056           
1 53242U 22086A   22223.25002315  .00067227  00000+0  47968-3 0  9993
2 53242  53.2198 315.6739 0008327 286.3872 347.5387 15.73153468  3414
STARLINK-4047           
1 53243U 22086B   22223.25002315 -.01031934  00000+0 -81580-2 0  9990
2 53243  53.2178 315.6711 0007426 272.1690 359.8251 15.73098104  3414
STARLINK-4125           
1 53244U 22086C   22223.25002315 -.01141018  00000+0 -91188-2 0  9991
2 53244  53.2177 315.6678 0001667  31.8896 242.4541 15.73192455  3418
STARLINK-4124           
1 53245U 22086D   22223.25002315 -.00983909  00000+0 -77753-2 0  9996
2 53245  53.2177 315.6711 0001976  21.6536 250.9558 15.73068557  3415
STARLINK-4131           
1 53246U 22086E   22223.25002315 -.01190431  00000+0 -95474-2 0  9998
2 53246  53.2176 315.6702 0002097  20.8671 252.2674 15.73228005  3411
STARLINK-4061           
1 53247U 22086F   22222.91667824  .00001283  00000+0  13597-4 0  9994
2 53247  53.2201 317.3252 0004930 306.7295 239.2137 15.73193021  1300
STARLINK-4135           
1 53248U 22086G   22222.91667824 -.00083308  00000+0 -59355-3 0  9996
2 53248  53.2202 317.3237 0002040  21.1213 165.4803 15.73255888  1303
STARLINK-4128           
1 53249U 22086H   22223.25002315  .00001775  00000+0  17066-4 0  9993
2 53249  53.2176 315.6641 0002175   9.4061 268.0094 15.73203456  3413
STARLINK-4059           
1 53250U 22086J   22223.25002315  .00002165  00000+0  19846-4 0  9997
2 53250  53.2176 315.6651 0002047  24.0219 252.2017 15.73203295  3413
STARLINK-4129           
1 53251U 22086K   22223.25002315  .00000860  00000+0  10556-4 0  9997
2 53251  53.2203 315.6664 0001994  23.3011 255.3303 15.73193834  3410
STARLINK-4132           
1 53252U 22086L   22222.91667824 -.00031501  00000+0 -22091-3 0  9996
2 53252  53.2199 317.3203 0001913  30.7354 157.2234 15.73193466  1306
STARLINK-4133           
1 53253U 22086M   22223.25002315  .00001832  00000+0  17518-4 0  9994
2 53253  53.2176 315.6599 0008253 285.3092 353.8950 15.73203420  3417
STARLINK-4134           
1 53254U 22086N   22222.91667824  .00002593  00000+0  22887-4 0  9999
2 53254  53.2199 317.3181 0002266   7.3792 181.5789 15.73206911  1306
STARLINK-4142           
1 53255U 22086P   22223.25002315 -.00028530  00000+0 -19911-3 0  9990
2 53255  53.2201 315.6622 0008586 284.6956 355.8082 15.73185997  3411
STARLINK-4147           
1 53256U 22086Q   22222.91667824  .00001169  00000+0  12757-4 0  9994
2 53256  53.2203 317.3158 0002196  18.4830 172.2496 15.73202105  1309
STARLINK-4144           
1 53257U 22086R   22223.25002315 -.00013468  00000+0 -91740-4 0  9997
2 53257  53.2203 315.6597 0001742  31.8762 250.3859 15.73186082  3417
STARLINK-4127           
1 53258U 22086S   22223.25002315  .00002981  00000+0  25652-4 0  9993
2 53258  53.2203 315.6621 0001833  33.8685 247.1229 15.73200108  3414
STARLINK-4140           
1 53259U 22086T   22222.91667824  .00002467  00000+0  21991-4 0  9999
2 53259  53.2202 317.3103 0002058  35.0836 158.6499 15.73206027  1307
STARLINK-4136           
1 53260U 22086U   22223.25002315 -.00407285  00000+0 -29984-2 0  9994
2 53260  53.2179 315.6556 0001861  35.4161 245.9733 15.73518702  3412
STARLINK-4062           
1 53261U 22086V   22223.25002315  .00074190  00000+0  52933-3 0  9999
2 53261  53.2178 315.6505 0002239  22.0340 262.5598 15.73156092  3411
STARLINK-4085           
1 53262U 22086W   22223.25002315  .00002386  00000+0  21414-4 0  9999
2 53262  53.2176 315.6513 0002004  31.7085 251.6685 15.73203170  3418
STARLINK-4130           
1 53263U 22086X   22223.25002315  .00220974  00000+0  15472-2 0  9990
2 53263  53.2176 315.6497 0001879  35.4189 249.8282 15.73057237  3418
STARLINK-3950           
1 53264U 22086Y   22223.25002315  .00002305  00000+0  20834-4 0  9997
2 53264  53.2176 315.6500 0001686  41.0672 242.9059 15.73203226  3417
STARLINK-4097           
1 53265U 22086Z   22222.91667824 -.00070640  00000+0 -50302-3 0  9993
2 53265  53.2201 317.3032 0002042  24.6842 172.7935 15.73202355  1300
STARLINK-4058           
1 53266U 22086AA  22222.91667824  .00002730  00000+0  23868-4 0  9995
2 53266  53.2199 317.3033 0002207  29.0839 167.6381 15.73206198  1303
STARLINK-4060           
1 53267U 22086AB  22222.91667824  .00000081  00000+0  50034-5 0  9999
2 53267  53.2200 317.2991 0002139  23.9952 175.2489 15.73201739  1302
STARLINK-4109           
1 53268U 22086AC  22223.25002315 -.00040832  00000+0 -28779-3 0  9995
2 53268  53.2201 315.6492 0002002  34.0255 253.0025 15.73208160  3410
STARLINK-4057           
1 53269U 22086AD  22222.91667824  .00177417  00000+0  12454-2 0  9990
2 53269  53.2186 317.2949 0001646  24.0595 176.1912 15.73136092  1307
STARLINK-4069           
1 53271U 22086AF  22223.25002315  .00344136  00000+0  23813-2 0  9994
2 53271  53.2179 315.6385 0001999  36.5874 254.0917 15.72962797  3410
STARLINK-4122           
1 53272U 22086AG  22223.25002315  .00050113  00000+0  35957-3 0  9997
2 53272  53.2203 315.6467 0002106  35.3345 253.4192 15.73184313  3410
STARLINK-4051           
1 53273U 22086AH  22223.25002315  .00064130  00000+0  45916-3 0  9998
2 53273  53.2201 315.6405 0001671  52.2157 239.5660 15.73133295  3414
STARLINK-4050           
1 53274U 22086AJ  22222.91667824  .00085185  00000+0  60619-3 0  9993
2 53274  53.2186 317.2928 0001842  41.4880 159.3707 15.73162256  1304
STARLINK-4179           
1 53275U 22086AK  22223.25002315  .00002491  00000+0  22168-4 0  9997
2 53275  53.2176 315.6338 0002304  19.9953 272.3234 15.73203065  3415
STARLINK-4174           
1 53276U 22086AL  22222.91667824 -.00000933  00000+0 -22185-5 0  9993
2 53276  53.2203 317.2944 0002161  26.7906 175.3022 15.73218181  1301
STARLINK-4178           
1 53277U 22086AM  22222.91667824 -.00083295  00000+0 -59403-3 0  9997
2 53277  53.2197 317.2864 0001735  41.6659 163.5087 15.73234754  1306
STARLINK-4180           
1 53278U 22086AN  22223.25002315 -.00393455  00000+0 -28961-2 0  9990
2 53278  53.2178 315.6336 0001697  48.4587 244.2963 15.73484786  3410
STARLINK-4169           
1 53280U 22086AQ  22223.25002315  .00002656  00000+0  23338-4 0  9996
2 53280  53.2176 315.6309 0001683  36.2553 257.2556 15.73202978  3417
STARLINK-4182           
1 53281U 22086AR  22222.91667824 -.00000584  00000+0  26679-6 0  9993
2 53281  53.2198 317.2837 0002250  30.4457 176.3210 15.73190079  1308
STARLINK-4164           
1 53282U 22086AS  22223.25002315  .00064961  00000+0  46370-3 0  9995
2 53282  53.2203 315.6356 0001654  45.4765 249.1166 15.73199469  3414
STARLINK-4175           
1 53283U 22086AT  22223.25002315  .00063743  00000+0  45590-3 0  9996
2 53283  53.2206 315.6328 0001790  46.1546 250.4866 15.73161030  3418
STARLINK-4172           
1 53284U 22086AU  22222.91667824 -.00095075  00000+0 -67953-3 0  9993
2 53284  53.2197 317.2839 0001772  34.1631 172.1548 15.73237484  1305
STARLINK-4173           
1 53285U 22086AV  22222.91667824 -.00004652  00000+0 -28777-4 0  9997
2 53285  53.2201 317.2795 0001642  39.4878 170.0037 15.73170322  1307
STARLINK-4165           
1 53286U 22086AW  22223.25002315 -.00035236  00000+0 -24769-3 0  9992
2 53286  53.2200 315.6295 0001657  50.6077 246.5272 15.73199114  3410
STARLINK-4107           
1 53287U 22086AX  22223.25002315  .00265008  00000+0  18404-2 0  9991
2 53287  53.2183 315.6243 0001766  40.4075 258.9131 15.73114175  3415
STARLINK-4162           
1 53288U 22086AY  22223.25002315  .00002735  00000+0  23901-4 0  9998
2 53288  53.2176 315.6227 0001946  50.1908 247.4930 15.73202927  3416
STARLINK-4176           
1 53289U 22086AZ  22223.25002315  .00002777  00000+0  24199-4 0  9995
2 53289  53.2176 315.6175 0001795  45.8409 254.8235 15.73202909  3418
STARLINK-4149           
1 53290U 22086BA  22223.25002315  .00002636  00000+0  23190-4 0  9991
2 53290  53.2199 315.6258 0001489  35.0973 263.8549 15.73205014  3412
STARLINK-4166           
1 53291U 22086BB  22222.91667824 -.00014140  00000+0 -96458-4 0  9998
2 53291  53.2180 317.2699 0001426  33.9963 178.2622 15.73209440  1301
STARLINK-4159           
1 53292U 22086BC  22223.25002315  .00002999  00000+0  25779-4 0  9990
2 53292  53.2176 315.6179 0001622  41.1697 258.8986 15.73202740  3413
STARLINK-4148           
1 53293U 22086BD  22223.25002315 -.00342712  00000+0 -25094-2 0  9991
2 53293  53.2180 315.6168 0001436  35.9623 265.7307 15.73464473  3417
STARLINK-4146           
1 53294U 22086BE  22222.91667824 -.00015043  00000+0 -10300-3 0  9995
2 53294  53.2195 317.2694 0001612  38.8636 174.7099 15.73189250  1308
FALCON 9 DEB            
1 53295U 22086BF  22223.14019143  .01286429  11740-4  70205-3 0  9992
2 53295  53.2180 313.2760 0040969  98.5874 261.9810 16.16776358  2836
FALCON 9 DEB            
1 53296U 22086BG  22223.13628410  .01222843  11733-4  69160-3 0  9995
2 53296  53.2127 313.2425 0039396  97.5543 262.9974 16.16483390  2833
FALCON 9 DEB            
1 53297U 22086BH  22223.18398160  .01293711  11783-4  64608-3 0  9996
2 53297  53.2187 312.8166 0036447  92.8954 267.6258 16.18335322  2846
FALCON 9 DEB            
1 53298U 22086BJ  22223.17793855  .01467047  11831-4  64541-3 0  9991
2 53298  53.2192 312.7720 0033720  90.8003 269.6901 16.20141714  2842
2022-087A               
1 53299U 22087A   22223.23274949  .00003751  00000+0  17114-3 0  9990
2 53299  97.4043 297.4222 0014009 227.7287 217.2388 15.21154877  2299
2022-087B               
1 53300U 22087B   22223.22899875  .00003509  00000+0  15858-3 0  9997
2 53300  97.4052 297.4282 0013982 234.7658 210.0426 15.21528154  2294
2022-087C               
1 53301U 22087C   22223.22840328  .00003319  00000+0  14986-3 0  9997
2 53301  97.4046 297.4285 0014754 234.7929 209.9630 15.21584847  2295
